STARLINK-2720
1 28653C 21044R   21325.13141373 -.00011045  00000-0 -73987-3 0  3256
2 28653  53.0549 327.6315 0001735  53.0836  58.7498 15.06416727    13
